OBJECT_NAME,OBJECT_ID,EPOCH,MEAN_MOTION,ECCENTRICITY,INCLINATION,RA_OF_ASC_NODE,ARG_OF_PERICENTER,MEAN_ANOMALY,EPHEMERIS_TYPE,CLASSIFICATION_TYPE,NORAD_CAT_ID,ELEMENT_SET_NO,REV_AT_EPOCH,BSTAR,MEAN_MOTION_DOT,MEAN_MOTION_DDOT
METEOR-M2 4,2024-039A,2026-06-10T15:23:56.139072,14.22428895,.00068968,98.7008,121.0220,179.6081,180.5103,0,U,59051,999,11833,.20439367E-4,.2E-7,0
STARLINK-31265,2024-041A,2026-06-09T16:52:12.428832,15.27578778,.00013118,43.0011,151.0711,270.4386,89.6316,0,U,59074,999,12834,.44034369E-4,.95E-5,0
STARLINK-31276,2024-041B,2026-06-10T06:13:21.774720,15.27579240,.0001176,43.0052,147.5166,260.8525,99.2194,0,U,59075,999,12848,.19955E-3,.5233E-4,0
STARLINK-31259,2024-041C,2026-06-10T06:18:55.188000,15.27582029,.0000676,42.9992,147.5395,268.2509,91.8265,0,U,59076,999,12738,.87937E-4,.2159E-4,0
STARLINK-31281,2024-041D,2026-06-10T06:24:27.410688,15.27579099,.0001025,43.0042,147.5726,268.7926,91.2808,0,U,59077,999,12848,.32437E-4,.631E-5,0
STARLINK-31274,2024-041E,2026-06-10T05:32:51.303840,15.27579131,.0001048,43.0010,148.1516,257.5373,102.5361,0,U,59078,999,12842,.33113E-4,.649E-5,0
STARLINK-31257,2024-041F,2026-06-09T16:35:33.138528,15.27580830,.00015729,43.0035,150.9885,277.3430,82.7243,0,U,59079,999,12834,.13549459E-3,.3468E-4,0
STARLINK-31292,2024-041H,2026-06-10T06:30:00.480960,15.27576252,.0001089,43.0025,147.5977,271.9593,88.1134,0,U,59081,999,12842,.20665E-4,.307E-5,0
STARLINK-31286,2024-041J,2026-06-09T16:28:10.024896,15.27575802,.00008243,43.0028,150.9510,307.6023,52.4754,0,U,59082,999,12842,-.17119042E-4,-.733E-5,0
STARLINK-31252,2024-041K,2026-06-10T00:10:06.498624,15.27580763,.00021894,43.0104,66.1621,280.3751,79.6854,0,U,59083,999,12939,.40203317E-4,.844E-5,0
STARLINK-31261,2024-041L,2026-06-10T05:42:06.625152,15.27578224,.000138,43.0018,148.1991,272.0211,88.0483,0,U,59084,999,12847,.21953E-4,.342E-5,0
STARLINK-31290,2024-041M,2026-06-10T04:38:18.844224,15.27553551,.000215,43.0102,134.0291,276.9726,83.0881,0,U,59085,999,12872,-.10539E-3,-.3159E-4,0
STARLINK-31279,2024-041N,2026-06-09T15:55:03.255168,15.27579499,.00011699,43.0008,151.6273,272.1234,87.9484,0,U,59086,999,12838,.40497665E-4,.852E-5,0
STARLINK-31266,2024-041P,2026-06-09T16:33:42.289056,15.27594476,.00013098,43.0032,150.9779,274.9262,85.1441,0,U,59087,999,12839,.67394807E-4,.1594E-4,0
STARLINK-31313,2024-041Q,2026-06-09T16:37:24.165120,15.27574065,.0002064,43.0038,150.9964,288.4161,71.6466,0,U,59088,999,12834,.23016417E-4,.371E-5,0
STARLINK-31307,2024-041R,2026-06-09T16:31:50.755296,15.27577147,.00016909,43.0041,150.9721,273.0073,87.0585,0,U,59089,999,12839,.9131599E-5,-.11E-6,0
STARLINK-31316,2024-041S,2026-06-10T13:00:50.938272,15.27572835,.00008233,42.9907,99.5084,80.6399,279.4546,0,U,59090,999,12895,.2031443E-5,-.206E-5,0
STARLINK-31310,2024-041U,2026-06-10T06:11:42.743040,15.27576584,.0001228,42.9952,148.3533,256.6308,103.4407,0,U,59092,999,12842,.15611E-4,.168E-5,0
STARLINK-31343,2024-041V,2026-06-10T05:53:12.686208,15.27578219,.0001002,43.0028,148.2539,269.7494,90.3243,0,U,59093,999,12847,.24551E-4,.414E-5,0
STARLINK-31295,2024-041X,2026-06-10T08:30:03.375936,15.27587133,.0001522,43.0029,147.3532,260.5685,99.4995,0,U,59095,999,12844,.64703343E-4,.1519E-4,0
STARLINK-31291,2024-041Y,2026-06-09T16:44:48.298272,15.27579016,.00009486,43.0028,151.0291,290.1073,69.9676,0,U,59096,999,12834,.46445887E-4,.1016E-4,0
HORACIO,2024-043A,2026-06-10T14:37:58.958688,14.98497384,.00116619,97.8509,293.3452,45.1270,315.0897,0,U,59098,999,12368,.10603801E-3,.1209E-4,0
MUSAT-2,2024-043B,2026-06-10T14:57:13.338720,15.08518639,.00069049,97.8587,300.1211,7.2449,352.8877,0,U,59099,999,12410,.33010227E-3,.5087E-4,0
