0 METEOR M2-4
1 59051U 24039A   26161.64162198  .00000002  00000-0  20439-4 0  9995
2 59051  98.7008 121.0220 0006897 179.6081 180.5103 14.22428895118333
0 STARLINK-31265
1 59074U 24041A   26160.70292163  .00000950  00000-0  44034-4 0  9994
2 59074  43.0011 151.0711 0001312 270.4386  89.6316 15.27578778128347
0 STARLINK-31276
1 59075U 24041B   26161.25927980  .00005233  00000-0  19955-3 0  9990
2 59075  43.0052 147.5166 0001176 260.8525  99.2194 15.27579240128484
0 STARLINK-31259
1 59076U 24041C   26161.26313875  .00002159  00000-0  87937-4 0  9994
2 59076  42.9992 147.5395 0000676 268.2509  91.8265 15.27582029127382
0 STARLINK-31281
1 59077U 24041D   26161.26698392  .00000631  00000-0  32437-4 0  9993
2 59077  43.0042 147.5726 0001025 268.7926  91.2808 15.27579099128488
0 STARLINK-31274
1 59078U 24041E   26161.23114935  .00000649  00000-0  33113-4 0  9998
2 59078  43.0010 148.1516 0001048 257.5373 102.5361 15.27579131128426
0 STARLINK-31257
1 59079U 24041F   26160.69135577  .00003468  00000-0  13549-3 0  9995
2 59079  43.0035 150.9885 0001573 277.3430  82.7243 15.27580830128348
0 STARLINK-31292
1 59081U 24041H   26161.27083890  .00000307  00000-0  20665-4 0  9990
2 59081  43.0025 147.5977 0001089 271.9593  88.1134 15.27576252128427
0 STARLINK-31286
1 59082U 24041J   26160.68622714 -.00000733  00000-0 -17119-4 0  9994
2 59082  43.0028 150.9510 0000824 307.6023  52.4754 15.27575802128425
0 STARLINK-31252
1 59083U 24041K   26161.00701966  .00000844  00000-0  40203-4 0  9990
2 59083  43.0104  66.1621 0002189 280.3751  79.6854 15.27580763129394
0 STARLINK-31261
1 59084U 24041L   26161.23757668  .00000342  00000-0  21953-4 0  9990
2 59084  43.0018 148.1991 0001380 272.0211  88.0483 15.27578224128470
0 STARLINK-31290
1 59085U 24041M   26161.19327366 -.00003159  00000-0 -10539-3 0  9992
2 59085  43.0102 134.0291 0002150 276.9726  83.0881 15.27553551128723
0 STARLINK-31279
1 59086U 24041N   26160.66323212  .00000852  00000-0  40498-4 0  9993
2 59086  43.0008 151.6273 0001170 272.1234  87.9484 15.27579499128380
0 STARLINK-31266
1 59087U 24041P   26160.69007279  .00001594  00000-0  67395-4 0  9998
2 59087  43.0032 150.9779 0001310 274.9262  85.1441 15.27594476128394
0 STARLINK-31313
1 59088U 24041Q   26160.69264080  .00000371  00000-0  23016-4 0  9998
2 59088  43.0038 150.9964 0002064 288.4161  71.6466 15.27574065128346
0 STARLINK-31307
1 59089U 24041R   26160.68878189 -.00000011  00000-0  91316-5 0  9990
2 59089  43.0041 150.9721 0001691 273.0073  87.0585 15.27577147128391
0 STARLINK-31316
1 59090U 24041S   26161.54225623 -.00000206  00000-0  20314-5 0  9993
2 59090  42.9907  99.5084 0000823  80.6399 279.4546 15.27572835128956
0 STARLINK-31310
1 59092U 24041U   26161.25813360  .00000168  00000-0  15611-4 0  9993
2 59092  42.9952 148.3533 0001228 256.6308 103.4407 15.27576584128424
0 STARLINK-31343
1 59093U 24041V   26161.24528572  .00000414  00000-0  24551-4 0  9998
2 59093  43.0028 148.2539 0001002 269.7494  90.3243 15.27578219128471
0 STARLINK-31295
1 59095U 24041X   26161.35420574  .00001519  00000-0  64703-4 0  9995
2 59095  43.0029 147.3532 0001522 260.5685  99.4995 15.27587133128441
0 STARLINK-31291
1 59096U 24041Y   26160.69778123  .00001016  00000-0  46446-4 0  9994
2 59096  43.0028 151.0291 0000949 290.1073  69.9676 15.27579016128345
0 HORACIO
1 59098U 24043A   26161.60971017  .00001209  00000-0  10604-3 0  9997
2 59098  97.8509 293.3452 0011662  45.1270 315.0897 14.98497384123684
0 MUSAT2
1 59099U 24043B   26161.62307105  .00005087  00000-0  33010-3 0  9995
2 59099  97.8587 300.1211 0006905   7.2449 352.8877 15.08518639124106
